{
    "links": {
        "self": "http://www.neowsapp.com/rest/v1/neo/3666684?api_key=iIulBulltgU6a56xZRHN4H3l9WmuAYTsLGpBGhQ2"
    },
    "id": "3666684",
    "neo_reference_id": "3666684",
    "name": "(2014 FP38)",
    "designation": "2014 FP38",
    "nasa_jpl_url": "http://ssd.jpl.nasa.gov/sbdb.cgi?sstr=3666684",
    "absolute_magnitude_h": 24.7,
    "estimated_diameter": {
        "kilometers": {
            "estimated_diameter_min": 0.0305179233,
            "estimated_diameter_max": 0.0682401509
        },
        "meters": {
            "estimated_diameter_min": 30.5179232594,
            "estimated_diameter_max": 68.2401509401
        },
        "miles": {
            "estimated_diameter_min": 0.0189629525,
            "estimated_diameter_max": 0.0424024508
        },
        "feet": {
            "estimated_diameter_min": 100.1244233463,
            "estimated_diameter_max": 223.8850168104
        }
    },
    "is_potentially_hazardous_asteroid": false,
    "close_approach_data": [
        {
            "close_approach_date": "2014-03-26",
            "close_approach_date_full": "2014-Mar-26 12:34",
            "epoch_date_close_approach": 1395837240000,
            "relative_velocity": {
                "kilometers_per_second": "10.9011481774",
                "kilometers_per_hour": "39244.1334387649",
                "miles_per_hour": "24384.7783581037"
            },
            "miss_distance": {
                "astronomical": "0.0649425336",
                "lunar": "25.2626455704",
                "kilometers": "9715264.698963432",
                "miles": "6036785.5544700816"
            },
            "orbiting_body": "Earth"
        }
    ],
    "orbital_data": {
        "orbit_id": "8",
        "orbit_determination_date": "2017-04-06 08:41:52",
        "first_observation_date": "2014-03-28",
        "last_observation_date": "2014-04-04",
        "data_arc_in_days": 7,
        "observations_used": 38,
        "orbit_uncertainty": "8",
        "minimum_orbit_intersection": ".0643436",
        "jupiter_tisserand_invariant": "4.970",
        "epoch_osculation": "2456746.5",
        "eccentricity": ".1774193556756797",
        "semi_major_axis": "1.283660785632492",
        "inclination": "20.348746603408",
        "ascending_node_longitude": "6.466784772342362",
        "orbital_period": "531.2192913874878",
        "perihelion_distance": "1.055914516139438",
        "perihelion_argument": "163.608445265419",
        "aphelion_distance": "1.511407055125545",
        "perihelion_time": "2456726.845746301597",
        "mean_anomaly": "13.31941713363713",
        "mean_motion": ".6776862321014711",
        "equinox": "J2000",
        "orbit_class": {
            "orbit_class_type": "AMO",
            "orbit_class_description": "Near-Earth asteroid orbits similar to that of 1221 Amor",
            "orbit_class_range": "1.017 AU < q (perihelion) < 1.3 AU"
        }
    },
    "is_sentry_object": false
}